start=new Date('2022-04-29T00:00:00.000Z').valueOf();
sats=[{"FILE":"3420206","TIME_SYSTEM":"UTC","PERIAPSIS":"545.963","MEAN_ANOMALY":"313.1055","OBJECT_TYPE":"PAYLOAD","COUNTRY_CODE":"US","EPHEMERIS_TYPE":"0","TLE_LINE1":"1 46338U 20062P   22118.62141116  .00004465  00000-0  31837-3 0  9994","EPOCH":"2022-04-28T14:54:49.924224","DECAY_DATE":null,"SITE":"AFETR","RCS_SIZE":"LARGE","APOAPSIS":"548.407","MEAN_MOTION":"15.06409333","OBJECT_ID":"2020-062P","TLE_LINE2":"2 46338  53.0547 231.1492 0001765  47.0082 313.1055 15.06409333 91802","OBJECT_NAME":"STARLINK-1752","LAUNCH_DATE":"2020-09-03","MEAN_ELEMENT_THEORY":"SGP4","RA_OF_ASC_NODE":"231.1492","INCLINATION":"53.0547","REV_AT_EPOCH":"9180","NORAD_CAT_ID":"46338","MEAN_MOTION_DOT":"0.00004465","PERIOD":"95.592","SEMIMAJOR_AXIS":"6925.320","MEAN_MOTION_DDOT":"0.0000000000000","BSTAR":"0.00031837000000","CLASSIFICATION_TYPE":"U","CENTER_NAME":"EARTH","REF_FRAME":"TEME","GP_ID":"202223423","ECCENTRICITY":"0.00017650","ELEMENT_SET_NO":"999","ARG_OF_PERICENTER":"47.0082"},{"RCS_SIZE":"LARGE","EPOCH":"2022-04-28T12:40:46.731360","DECAY_DATE":null,"SITE":"AFETR","MEAN_MOTION":"15.06403959","APOAPSIS":"548.435","OBJECT_ID":"2020-062R","OBJECT_NAME":"STARLINK-1759","TLE_LINE2":"2 46340  53.0555 231.5653 0001781  53.6898 306.4255 15.06403959 91617","LAUNCH_DATE":"2020-09-03","MEAN_ELEMENT_THEORY":"SGP4","REV_AT_EPOCH":"9161","INCLINATION":"53.0555","RA_OF_ASC_NODE":"231.5653","PERIOD":"95.592","SEMIMAJOR_AXIS":"6925.336","NORAD_CAT_ID":"46340","MEAN_MOTION_DOT":"0.00002513","CLASSIFICATION_TYPE":"U","REF_FRAME":"TEME","CENTER_NAME":"EARTH","MEAN_MOTION_DDOT":"0.0000000000000","BSTAR":"0.00018750000000","ARG_OF_PERICENTER":"53.6898","GP_ID":"202214409","ECCENTRICITY":"0.00017810","ELEMENT_SET_NO":"999","FILE":"3420061","PERIAPSIS":"545.968","TIME_SYSTEM":"UTC","COUNTRY_CODE":"US","OBJECT_TYPE":"PAYLOAD","MEAN_ANOMALY":"306.4255","EPHEMERIS_TYPE":"0","TLE_LINE1":"1 46340U 20062R   22118.52831865  .00002513  00000-0  18750-3 0  9994"},{"EPHEMERIS_TYPE":"0","TLE_LINE1":"1 46341U 20062S   22118.53479174  .00007503  00000-0  52176-3 0  9991","PERIAPSIS":"545.948","TIME_SYSTEM":"UTC","FILE":"3420061","MEAN_ANOMALY":"310.1780","OBJECT_TYPE":"PAYLOAD","COUNTRY_CODE":"US","RA_OF_ASC_NODE":"211.5379","INCLINATION":"53.0549","REV_AT_EPOCH":"9190","MEAN_MOTION_DOT":"0.00007503","NORAD_CAT_ID":"46341","SEMIMAJOR_AXIS":"6925.286","PERIOD":"95.591","BSTAR":"0.00052176000000","MEAN_MOTION_DDOT":"0.0000000000000","CENTER_NAME":"EARTH","REF_FRAME":"TEME","CLASSIFICATION_TYPE":"U","ECCENTRICITY":"0.00017370","ELEMENT_SET_NO":"999","GP_ID":"202215160","ARG_OF_PERICENTER":"49.9361","DECAY_DATE":null,"SITE":"AFETR","EPOCH":"2022-04-28T12:50:06.006336","RCS_SIZE":"LARGE","APOAPSIS":"548.354","OBJECT_ID":"2020-062S","MEAN_MOTION":"15.06420455","TLE_LINE2":"2 46341  53.0549 211.5379 0001737  49.9361 310.1780 15.06420455 91905","OBJECT_NAME":"STARLINK-1760","MEAN_ELEMENT_THEORY":"SGP4","LAUNCH_DATE":"2020-09-03"},{"TLE_LINE1":"1 46342U 20062T   22118.58086831  .00013865  00000-0  94751-3 0  9994","EPHEMERIS_TYPE":"0","PERIAPSIS":"545.974","TIME_SYSTEM":"UTC","FILE":"3420061","MEAN_ANOMALY":"299.3884","OBJECT_TYPE":"PAYLOAD","COUNTRY_CODE":"US","BSTAR":"0.00094751000000","MEAN_MOTION_DDOT":"0.0000000000000","CENTER_NAME":"EARTH","REF_FRAME":"TEME","CLASSIFICATION_TYPE":"U","ECCENTRICITY":"0.00017240","ELEMENT_SET_NO":"999","GP_ID":"202215408","ARG_OF_PERICENTER":"60.7278","RA_OF_ASC_NODE":"231.3175","INCLINATION":"53.0542","REV_AT_EPOCH":"9162","MEAN_MOTION_DOT":"0.00013865","NORAD_CAT_ID":"46342","SEMIMAJOR_AXIS":"6925.302","PERIOD":"95.591","TLE_LINE2":"2 46342  53.0542 231.3175 0001724  60.7278 299.3884 15.06415035 91627","OBJECT_NAME":"STARLINK-1762","MEAN_ELEMENT_THEORY":"SGP4","LAUNCH_DATE":"2020-09-03","SITE":"AFETR","DECAY_DATE":null,"EPOCH":"2022-04-28T13:56:27.021984","RCS_SIZE":"LARGE","APOAPSIS":"548.361","OBJECT_ID":"2020-062T","MEAN_MOTION":"15.06415035"},{"EPHEMERIS_TYPE":"0","TLE_LINE1":"1 46343U 20062U   22118.50899014  .00008656  00000-0  59906-3 0  9997","FILE":"3420061","TIME_SYSTEM":"UTC","PERIAPSIS":"545.913","MEAN_ANOMALY":"295.3734","OBJECT_TYPE":"PAYLOAD","COUNTRY_CODE":"US","REV_AT_EPOCH":"9189","RA_OF_ASC_NODE":"211.6677","INCLINATION":"53.0556","NORAD_CAT_ID":"46343","MEAN_MOTION_DOT":"0.00008656","PERIOD":"95.591","SEMIMAJOR_AXIS":"6925.304","MEAN_MOTION_DDOT":"0.0000000000000","BSTAR":"0.00059906000000","CLASSIFICATION_TYPE":"U","REF_FRAME":"TEME","CENTER_NAME":"EARTH","GP_ID":"202215660","ECCENTRICITY":"0.00018140","ELEMENT_SET_NO":"999","ARG_OF_PERICENTER":"64.7443","EPOCH":"2022-04-28T12:12:56.748096","DECAY_DATE":null,"SITE":"AFETR","RCS_SIZE":"LARGE","MEAN_MOTION":"15.06414418","APOAPSIS":"548.426","OBJECT_ID":"2020-062U","TLE_LINE2":"2 46343  53.0556 211.6677 0001814  64.7443 295.3734 15.06414418 91892","OBJECT_NAME":"STARLINK-1764","LAUNCH_DATE":"2020-09-03","MEAN_ELEMENT_THEORY":"SGP4"},{"MEAN_ELEMENT_THEORY":"SGP4","LAUNCH_DATE":"2020-09-03","OBJECT_NAME":"STARLINK-1765","TLE_LINE2":"2 46344  53.0553 211.5748 0001864  44.5227 315.5911 15.06426193 91894","MEAN_MOTION":"15.06426193","APOAPSIS":"548.424","OBJECT_ID":"2020-062V","RCS_SIZE":"LARGE","DECAY_DATE":null,"SITE":"AFETR","EPOCH":"2022-04-28T12:39:28.512576","ARG_OF_PERICENTER":"44.5227","ELEMENT_SET_NO":"999","ECCENTRICITY":"0.00018640","GP_ID":"202214910","CENTER_NAME":"EARTH","REF_FRAME":"TEME","CLASSIFICATION_TYPE":"U","BSTAR":"0.00072319000000","MEAN_MOTION_DDOT":"0.0000000000000","SEMIMAJOR_AXIS":"6925.268","PERIOD":"95.590","MEAN_MOTION_DOT":"0.00010514","NORAD_CAT_ID":"46344","INCLINATION":"53.0553","RA_OF_ASC_NODE":"211.5748","REV_AT_EPOCH":"9189","COUNTRY_CODE":"US","MEAN_ANOMALY":"315.5911","OBJECT_TYPE":"PAYLOAD","PERIAPSIS":"545.842","TIME_SYSTEM":"UTC","FILE":"3420061","TLE_LINE1":"1 46344U 20062V   22118.52741334  .00010514  00000-0  72319-3 0  9990","EPHEMERIS_TYPE":"0"},{"INCLINATION":"53.0543","REV_AT_EPOCH":"9180","RA_OF_ASC_NODE":"231.2539","MEAN_MOTION_DOT":"0.00014041","NORAD_CAT_ID":"46345","SEMIMAJOR_AXIS":"6925.312","PERIOD":"95.591","BSTAR":"0.00095935000000","MEAN_MOTION_DDOT":"0.0000000000000","CENTER_NAME":"EARTH","REF_FRAME":"TEME","CLASSIFICATION_TYPE":"U","ECCENTRICITY":"0.00017140","ELEMENT_SET_NO":"999","GP_ID":"202223444","ARG_OF_PERICENTER":"46.5747","DECAY_DATE":null,"SITE":"AFETR","EPOCH":"2022-04-28T14:17:40.768800","RCS_SIZE":"LARGE","MEAN_MOTION":"15.06411899","APOAPSIS":"548.364","OBJECT_ID":"2020-062W","TLE_LINE2":"2 46345  53.0543 231.2539 0001714  46.5747 313.5384 15.06411899 91804","OBJECT_NAME":"STARLINK-1767","MEAN_ELEMENT_THEORY":"SGP4","LAUNCH_DATE":"2020-09-03","EPHEMERIS_TYPE":"0","TLE_LINE1":"1 46345U 20062W   22118.59561075  .00014041  00000-0  95935-3 0  9998","PERIAPSIS":"545.990","TIME_SYSTEM":"UTC","FILE":"3420190","MEAN_ANOMALY":"313.5384","OBJECT_TYPE":"PAYLOAD","COUNTRY_CODE":"US"},{"COUNTRY_CODE":"US","OBJECT_TYPE":"PAYLOAD","MEAN_ANOMALY":"344.9728","FILE":"3420061","PERIAPSIS":"460.215","TIME_SYSTEM":"UTC","EPHEMERIS_TYPE":"0","TLE_LINE1":"1 46346U 20062X   22118.31681129  .00035433  00000-0  10572-2 0  9993","APOAPSIS":"465.652","MEAN_MOTION":"15.34323107","OBJECT_ID":"2020-062X","RCS_SIZE":"LARGE","EPOCH":"2022-04-28T07:36:12.495456","SITE":"AFETR","DECAY_DATE":null,"LAUNCH_DATE":"2020-09-03","MEAN_ELEMENT_THEORY":"SGP4","OBJECT_NAME":"STARLINK-1546","TLE_LINE2":"2 46346  53.0534  85.8538 0003974  15.1391 344.9728 15.34323107 93654","PERIOD":"93.852","SEMIMAJOR_AXIS":"6841.069","NORAD_CAT_ID":"46346","MEAN_MOTION_DOT":"0.00035433","REV_AT_EPOCH":"9365","RA_OF_ASC_NODE":"85.8538","INCLINATION":"53.0534","ARG_OF_PERICENTER":"15.1391","GP_ID":"202215909","ECCENTRICITY":"0.00039740","ELEMENT_SET_NO":"999","CLASSIFICATION_TYPE":"U","CENTER_NAME":"EARTH","REF_FRAME":"TEME","MEAN_MOTION_DDOT":"0.0000000000000","BSTAR":"0.00105720000000"},{"PERIOD":"95.592","SEMIMAJOR_AXIS":"6925.346","NORAD_CAT_ID":"46347","MEAN_MOTION_DOT":"0.00001413","REV_AT_EPOCH":"9222","INCLINATION":"53.0539","RA_OF_ASC_NODE":"186.7414","ARG_OF_PERICENTER":"41.5247","GP_ID":"202216161","ECCENTRICITY":"0.00019240","ELEMENT_SET_NO":"999","CLASSIFICATION_TYPE":"U","CENTER_NAME":"EARTH","REF_FRAME":"TEME","MEAN_MOTION_DDOT":"0.0000000000000","BSTAR":"0.00011375000000","MEAN_MOTION":"15.06400740","APOAPSIS":"548.544","OBJECT_ID":"2020-062Y","RCS_SIZE":"LARGE","EPOCH":"2022-04-28T11:41:46.052448","DECAY_DATE":null,"SITE":"AFETR","LAUNCH_DATE":"2020-09-03","MEAN_ELEMENT_THEORY":"SGP4","OBJECT_NAME":"STARLINK-1547","TLE_LINE2":"2 46347  53.0539 186.7414 0001924  41.5247 318.5887 15.06400740 92223","EPHEMERIS_TYPE":"0","TLE_LINE1":"1 46347U 20062Y   22118.48733857  .00001413  00000-0  11375-3 0  9992","COUNTRY_CODE":"US","OBJECT_TYPE":"PAYLOAD","MEAN_ANOMALY":"318.5887","FILE":"3420061","TIME_SYSTEM":"UTC","PERIAPSIS":"545.879"},{"MEAN_ELEMENT_THEORY":"SGP4","LAUNCH_DATE":"2020-09-03","OBJECT_NAME":"STARLINK-1553","TLE_LINE2":"2 46348  53.0530 210.6470 0002004  62.7356 297.3837 15.06417603 92102","APOAPSIS":"548.547","OBJECT_ID":"2020-062Z","MEAN_MOTION":"15.06417603","RCS_SIZE":"LARGE","DECAY_DATE":null,"SITE":"AFETR","EPOCH":"2022-04-28T17:31:24.224736","ARG_OF_PERICENTER":"62.7356","ECCENTRICITY":"0.00020040","ELEMENT_SET_NO":"999","GP_ID":"202228343","CENTER_NAME":"EARTH","REF_FRAME":"TEME","CLASSIFICATION_TYPE":"U","BSTAR":"0.00043678000000","MEAN_MOTION_DDOT":"0.0000000000000","SEMIMAJOR_AXIS":"6925.295","PERIOD":"95.591","MEAN_MOTION_DOT":"0.00006233","NORAD_CAT_ID":"46348","RA_OF_ASC_NODE":"210.6470","INCLINATION":"53.0530","REV_AT_EPOCH":"9210","COUNTRY_CODE":"US","MEAN_ANOMALY":"297.3837","OBJECT_TYPE":"PAYLOAD","TIME_SYSTEM":"UTC","PERIAPSIS":"545.772","FILE":"3420363","TLE_LINE1":"1 46348U 20062Z   22118.73014149  .00006233  00000-0  43678-3 0  9993","EPHEMERIS_TYPE":"0"}];
